{
  "type": "FeatureCollection",
  "features": [
    {
      "type": "Feature",
      "properties": {
        "norad_id": 34815,
        "name": "COSMOS 2251 DEB",
        "group": "cosmos-2251-debris",
        "lat": -48.752976759931194,
        "lon": 68.58307841202799,
        "alt_km": 623.9135171299758,
        "timestamp": "2025-12-18T23:35:49.458411+00:00",
        "meta_object_name": "COSMOS 2251 DEB",
        "meta_object_id": "1993-036ABE",
        "meta_epoch": "2025-12-18T09:33:20.790720",
        "meta_mean_motion": 14.78378634,
        "meta_eccentricity": 0.00588197,
        "meta_inclination": 74.0448,
        "meta_ra_of_asc_node": 230.6896,
        "meta_arg_of_pericenter": 298.5916,
        "meta_mean_anomaly": 60.9349,
        "meta_ephemeris_type": 0,
        "meta_classification_type": "U",
        "meta_norad_cat_id": 34815,
        "meta_element_set_no": 999,
        "meta_rev_at_epoch": 88711,
        "meta_bstar": 0.00063999351,
        "meta_mean_motion_dot": 4.763e-05,
        "meta_mean_motion_ddot": 0,
        "tle_line1": "1 34815U 93036ABE 25352.39815730  .00004763  00000+0  63999-3 0  9993",
        "tle_line2": "2 34815  74.0448 230.6896 0058819 298.5916  60.9349 14.78378634887112"
      },
      "geometry": {
        "type": "Point",
        "coordinates": [
          68.58307841202799,
          -48.752976759931194
        ]
      }
    },
    {
      "type": "Feature",
      "properties": {
        "norad_id": 34816,
        "name": "COSMOS 2251 DEB",
        "group": "cosmos-2251-debris",
        "lat": 8.54206965014232,
        "lon": 135.42336869112103,
        "alt_km": 1317.6256573294404,
        "timestamp": "2025-12-18T23:35:49.458421+00:00",
        "meta_object_name": "COSMOS 2251 DEB",
        "meta_object_id": "1993-036ABF",
        "meta_epoch": "2025-12-17T19:54:35.147808",
        "meta_mean_motion": 13.58338046,
        "meta_eccentricity": 0.03732688,
        "meta_inclination": 73.8866,
        "meta_ra_of_asc_node": 134.8167,
        "meta_arg_of_pericenter": 198.4084,
        "meta_mean_anomaly": 290.8064,
        "meta_ephemeris_type": 0,
        "meta_classification_type": "U",
        "meta_norad_cat_id": 34816,
        "meta_element_set_no": 999,
        "meta_rev_at_epoch": 82852,
        "meta_bstar": 0.0011037715,
        "meta_mean_motion_dot": 1.242e-05,
        "meta_mean_motion_ddot": 0,
        "tle_line1": "1 34816U 93036ABF 25351.82957347  .00001242  00000+0  11038-2 0  9997",
        "tle_line2": "2 34816  73.8866 134.8167 0373268 198.4084 290.8064 13.58338046828520"
      },
      "geometry": {
        "type": "Point",
        "coordinates": [
          135.42336869112103,
          8.54206965014232
        ]
      }
    },
    {
      "type": "Feature",
      "properties": {
        "norad_id": 34818,
        "name": "COSMOS 2251 DEB",
        "group": "cosmos-2251-debris",
        "lat": -57.536142127268405,
        "lon": -101.28082848881593,
        "alt_km": 766.7133317926036,
        "timestamp": "2025-12-18T23:35:49.458431+00:00",
        "meta_object_name": "COSMOS 2251 DEB",
        "meta_object_id": "1993-036ABH",
        "meta_epoch": "2025-12-18T06:11:51.770112",
        "meta_mean_motion": 14.36973962,
        "meta_eccentricity": 0.00244025,
        "meta_inclination": 74.0361,
        "meta_ra_of_asc_node": 286.7919,
        "meta_arg_of_pericenter": 1.0384,
        "meta_mean_anomaly": 149.0545,
        "meta_ephemeris_type": 0,
        "meta_classification_type": "U",
        "meta_norad_cat_id": 34818,
        "meta_element_set_no": 999,
        "meta_rev_at_epoch": 87449,
        "meta_bstar": 0.00017346225,
        "meta_mean_motion_dot": 4.89e-06,
        "meta_mean_motion_ddot": 0,
        "tle_line1": "1 34818U 93036ABH 25352.25823808  .00000489  00000+0  17346-3 0  9992",
        "tle_line2": "2 34818  74.0361 286.7919 0024402   1.0384 149.0545 14.36973962874497"
      },
      "geometry": {
        "type": "Point",
        "coordinates": [
          -101.28082848881593,
          -57.536142127268405
        ]
      }
    },
    {
      "type": "Feature",
      "properties": {
        "norad_id": 34819,
        "name": "COSMOS 2251 DEB",
        "group": "cosmos-2251-debris",
        "lat": 68.86592455671016,
        "lon": -97.1997004196229,
        "alt_km": 678.735084508462,
        "timestamp": "2025-12-18T23:35:49.458442+00:00",
        "meta_object_name": "COSMOS 2251 DEB",
        "meta_object_id": "1993-036ABJ",
        "meta_epoch": "2025-12-18T04:14:58.147296",
        "meta_mean_motion": 14.64046793,
        "meta_eccentricity": 0.00155932,
        "meta_inclination": 74.0172,
        "meta_ra_of_asc_node": 132.2052,
        "meta_arg_of_pericenter": 226.8297,
        "meta_mean_anomaly": 310.1691,
        "meta_ephemeris_type": 0,
        "meta_classification_type": "U",
        "meta_norad_cat_id": 34819,
        "meta_element_set_no": 999,
        "meta_rev_at_epoch": 88308,
        "meta_bstar": 0.0011802797,
        "meta_mean_motion_dot": 6.178e-05,
        "meta_mean_motion_ddot": 0,
        "tle_line1": "1 34819U 93036ABJ 25352.17706189  .00006178  00000+0  11803-2 0  9998",
        "tle_line2": "2 34819  74.0172 132.2052 0015593 226.8297 310.1691 14.64046793883084"
      },
      "geometry": {
        "type": "Point",
        "coordinates": [
          -97.1997004196229,
          68.86592455671016
        ]
      }
    },
    {
      "type": "Feature",
      "properties": {
        "norad_id": 34823,
        "name": "COSMOS 2251 DEB",
        "group": "cosmos-2251-debris",
        "lat": -48.410054425472126,
        "lon": 71.6540525213478,
        "alt_km": 792.9002752013666,
        "timestamp": "2025-12-18T23:35:49.458453+00:00",
        "meta_object_name": "COSMOS 2251 DEB",
        "meta_object_id": "1993-036ABN",
        "meta_epoch": "2025-12-17T16:29:01.822560",
        "meta_mean_motion": 14.54962902,
        "meta_eccentricity": 0.01543529,
        "meta_inclination": 74.0424,
        "meta_ra_of_asc_node": 92.9148,
        "meta_arg_of_pericenter": 176.4751,
        "meta_mean_anomaly": 183.7542,
        "meta_ephemeris_type": 0,
        "meta_classification_type": "U",
        "meta_norad_cat_id": 34823,
        "meta_element_set_no": 999,
        "meta_rev_at_epoch": 88453,
        "meta_bstar": 0.00051395054,
        "meta_mean_motion_dot": 2.564e-05,
        "meta_mean_motion_ddot": 0,
        "tle_line1": "1 34823U 93036ABN 25351.68682665  .00002564  00000+0  51395-3 0  9996",
        "tle_line2": "2 34823  74.0424  92.9148 0154352 176.4751 183.7542 14.54962902884537"
      },
      "geometry": {
        "type": "Point",
        "coordinates": [
          71.6540525213478,
          -48.410054425472126
        ]
      }
    },
    {
      "type": "Feature",
      "properties": {
        "norad_id": 34845,
        "name": "COSMOS 2251 DEB",
        "group": "cosmos-2251-debris",
        "lat": 66.15245873875203,
        "lon": 177.09192365201406,
        "alt_km": 743.8199986486552,
        "timestamp": "2025-12-18T23:35:49.458463+00:00",
        "meta_object_name": "COSMOS 2251 DEB",
        "meta_object_id": "1993-036ABP",
        "meta_epoch": "2025-12-18T03:20:16.618272",
        "meta_mean_motion": 14.45869846,
        "meta_eccentricity": 0.00226187,
        "meta_inclination": 74.0247,
        "meta_ra_of_asc_node": 138.2724,
        "meta_arg_of_pericenter": 298.416,
        "meta_mean_anomaly": 61.4719,
        "meta_ephemeris_type": 0,
        "meta_classification_type": "U",
        "meta_norad_cat_id": 34845,
        "meta_element_set_no": 999,
        "meta_rev_at_epoch": 87544,
        "meta_bstar": 0.00023548418,
        "meta_mean_motion_dot": 8.12e-06,
        "meta_mean_motion_ddot": 0,
        "tle_line1": "1 34845U 93036ABP 25352.13908123  .00000812  00000+0  23548-3 0  9994",
        "tle_line2": "2 34845  74.0247 138.2724 0022618 298.4160  61.4719 14.45869846875447"
      },
      "geometry": {
        "type": "Point",
        "coordinates": [
          177.09192365201406,
          66.15245873875203
        ]
      }
    },
    {
      "type": "Feature",
      "properties": {
        "norad_id": 34846,
        "name": "COSMOS 2251 DEB",
        "group": "cosmos-2251-debris",
        "lat": 40.112040176603365,
        "lon": -95.94073140965445,
        "alt_km": 730.0096106032097,
        "timestamp": "2025-12-18T23:35:49.458473+00:00",
        "meta_object_name": "COSMOS 2251 DEB",
        "meta_object_id": "1993-036ABQ",
        "meta_epoch": "2025-12-17T20:51:35.450784",
        "meta_mean_motion": 14.47244487,
        "meta_eccentricity": 0.00261793,
        "meta_inclination": 74.0309,
        "meta_ra_of_asc_node": 252.1826,
        "meta_arg_of_pericenter": 317.9376,
        "meta_mean_anomaly": 41.9772,
        "meta_ephemeris_type": 0,
        "meta_classification_type": "U",
        "meta_norad_cat_id": 34846,
        "meta_element_set_no": 999,
        "meta_rev_at_epoch": 87478,
        "meta_bstar": 0.00058072319,
        "meta_mean_motion_dot": 2.105e-05,
        "meta_mean_motion_ddot": 0,
        "tle_line1": "1 34846U 93036ABQ 25351.86916031  .00002105  00000+0  58072-3 0  9998",
        "tle_line2": "2 34846  74.0309 252.1826 0026179 317.9376  41.9772 14.47244487874786"
      },
      "geometry": {
        "type": "Point",
        "coordinates": [
          -95.94073140965445,
          40.112040176603365
        ]
      }
    }
  ]
}